[{"OBJECT_NAME":"ONEWEB-0567","OBJECT_ID":"2023-004H","EPOCH":"2026-04-16T14:26:18.062016","MEAN_MOTION":13.18686041,"ECCENTRICITY":0.0001722,"INCLINATION":87.9214,"RA_OF_ASC_NODE":347.722,"ARG_OF_PERICENTER":67.7832,"MEAN_ANOMALY":292.3483,"EPHEMERIS_TYPE":0,"CLASSIFICATION_TYPE":"U","NORAD_CAT_ID":55147,"ELEMENT_SET_NO":999,"REV_AT_EPOCH":16158,"BSTAR":0.00016012,"MEAN_MOTION_DOT":7.6e-07,"MEAN_MOTION_DDOT":0.0},{"OBJECT_NAME":"ONEWEB-0569","OBJECT_ID":"2023-004J","EPOCH":"2026-04-16T14:36:56.602944","MEAN_MOTION":13.13470096,"ECCENTRICITY":0.0002276,"INCLINATION":87.8988,"RA_OF_ASC_NODE":332.4801,"ARG_OF_PERICENTER":61.8411,"MEAN_ANOMALY":298.2948,"EPHEMERIS_TYPE":0,"CLASSIFICATION_TYPE":"U","NORAD_CAT_ID":55148,"ELEMENT_SET_NO":999,"REV_AT_EPOCH":16209,"BSTAR":0.0010851,"MEAN_MOTION_DOT":4.09e-06,"MEAN_MOTION_DDOT":0.0},{"OBJECT_NAME":"ONEWEB-0570","OBJECT_ID":"2023-004K","EPOCH":"2026-04-16T21:29:04.786656","MEAN_MOTION":13.18684205,"ECCENTRICITY":0.0001277,"INCLINATION":87.921,"RA_OF_ASC_NODE":347.6616,"ARG_OF_PERICENTER":78.81,"MEAN_ANOMALY":281.3176,"EPHEMERIS_TYPE":0,"CLASSIFICATION_TYPE":"U","NORAD_CAT_ID":55149,"ELEMENT_SET_NO":999,"REV_AT_EPOCH":16161,"BSTAR":-3.3933e-05,"MEAN_MOTION_DOT":0.0,"MEAN_MOTION_DDOT":0.0},{"OBJECT_NAME":"ONEWEB-0571","OBJECT_ID":"2023-004L","EPOCH":"2026-04-16T21:19:34.864608","MEAN_MOTION":13.18684227,"ECCENTRICITY":0.0001961,"INCLINATION":87.9211,"RA_OF_ASC_NODE":347.662,"ARG_OF_PERICENTER":42.5999,"MEAN_ANOMALY":317.5285,"EPHEMERIS_TYPE":0,"CLASSIFICATION_TYPE":"U","NORAD_CAT_ID":55150,"ELEMENT_SET_NO":999,"REV_AT_EPOCH":16162,"BSTAR":3.3182e-05,"MEAN_MOTION_DOT":2.6e-07,"MEAN_MOTION_DDOT":0.0},{"OBJECT_NAME":"ONEWEB-0572","OBJECT_ID":"2023-004M","EPOCH":"2026-04-16T11:30:26.488800","MEAN_MOTION":13.17648315,"ECCENTRICITY":0.0001779,"INCLINATION":87.9186,"RA_OF_ASC_NODE":18.1244,"ARG_OF_PERICENTER":72.5223,"MEAN_ANOMALY":287.6103,"EPHEMERIS_TYPE":0,"CLASSIFICATION_TYPE":"U","NORAD_CAT_ID":55151,"ELEMENT_SET_NO":999,"REV_AT_EPOCH":15935,"BSTAR":-0.00053843,"MEAN_MOTION_DOT":-1.96e-06,"MEAN_MOTION_DDOT":0.0},{"OBJECT_NAME":"ONEWEB-0573","OBJECT_ID":"2023-004N","EPOCH":"2026-04-16T10:14:31.001280","MEAN_MOTION":13.18685492,"ECCENTRICITY":0.0001291,"INCLINATION":87.921,"RA_OF_ASC_NODE":347.7553,"ARG_OF_PERICENTER":54.864,"MEAN_ANOMALY":305.2613,"EPHEMERIS_TYPE":0,"CLASSIFICATION_TYPE":"U","NORAD_CAT_ID":55152,"ELEMENT_SET_NO":999,"REV_AT_EPOCH":16155,"BSTAR":0.00010143000000000001,"MEAN_MOTION_DOT":5.3e-07,"MEAN_MOTION_DDOT":0.0},{"OBJECT_NAME":"ONEWEB-0588","OBJECT_ID":"2023-004P","EPOCH":"2026-04-16T13:43:31.312416","MEAN_MOTION":13.18687596,"ECCENTRICITY":0.0001337,"INCLINATION":87.9209,"RA_OF_ASC_NODE":347.7272,"ARG_OF_PERICENTER":76.5789,"MEAN_ANOMALY":283.5492,"EPHEMERIS_TYPE":0,"CLASSIFICATION_TYPE":"U","NORAD_CAT_ID":55153,"ELEMENT_SET_NO":999,"REV_AT_EPOCH":16157,"BSTAR":-3.9486e-05,"MEAN_MOTION_DOT":-3e-08,"MEAN_MOTION_DDOT":0.0},{"OBJECT_NAME":"ONEWEB-0598","OBJECT_ID":"2023-004Q","EPOCH":"2026-04-16T12:17:56.956992","MEAN_MOTION":13.11420592,"ECCENTRICITY":0.0002199,"INCLINATION":87.8925,"RA_OF_ASC_NODE":33.3293,"ARG_OF_PERICENTER":58.73,"MEAN_ANOMALY":301.4043,"EPHEMERIS_TYPE":0,"CLASSIFICATION_TYPE":"U","NORAD_CAT_ID":55154,"ELEMENT_SET_NO":999,"REV_AT_EPOCH":15781,"BSTAR":-0.0016342000000000001,"MEAN_MOTION_DOT":-5.67e-06,"MEAN_MOTION_DDOT":0.0},{"OBJECT_NAME":"ONEWEB-0599","OBJECT_ID":"2023-004R","EPOCH":"2026-04-16T05:06:31.006368","MEAN_MOTION":13.17647514,"ECCENTRICITY":0.000206,"INCLINATION":87.9188,"RA_OF_ASC_NODE":18.1759,"ARG_OF_PERICENTER":77.5147,"MEAN_ANOMALY":282.6214,"EPHEMERIS_TYPE":0,"CLASSIFICATION_TYPE":"U","NORAD_CAT_ID":55155,"ELEMENT_SET_NO":999,"REV_AT_EPOCH":15932,"BSTAR":3.4199e-05,"MEAN_MOTION_DOT":2.6e-07,"MEAN_MOTION_DDOT":0.0},{"OBJECT_NAME":"ONEWEB-0614","OBJECT_ID":"2023-004S","EPOCH":"2026-04-16T12:10:37.547328","MEAN_MOTION":13.11415396,"ECCENTRICITY":0.0001647,"INCLINATION":87.8916,"RA_OF_ASC_NODE":33.3394,"ARG_OF_PERICENTER":82.4503,"MEAN_ANOMALY":277.6812,"EPHEMERIS_TYPE":0,"CLASSIFICATION_TYPE":"U","NORAD_CAT_ID":55156,"ELEMENT_SET_NO":999,"REV_AT_EPOCH":15775,"BSTAR":-0.0011327,"MEAN_MOTION_DOT":-3.89e-06,"MEAN_MOTION_DDOT":0.0},{"OBJECT_NAME":"ONEWEB-0616","OBJECT_ID":"2023-004T","EPOCH":"2026-04-16T11:35:19.007232","MEAN_MOTION":13.17647652,"ECCENTRICITY":0.0002764,"INCLINATION":87.9186,"RA_OF_ASC_NODE":18.1247,"ARG_OF_PERICENTER":81.8733,"MEAN_ANOMALY":278.2712,"EPHEMERIS_TYPE":0,"CLASSIFICATION_TYPE":"U","NORAD_CAT_ID":55157,"ELEMENT_SET_NO":999,"REV_AT_EPOCH":15957,"BSTAR":2.5116e-05,"MEAN_MOTION_DOT":2.3e-07,"MEAN_MOTION_DDOT":0.0},{"OBJECT_NAME":"ONEWEB-0617","OBJECT_ID":"2023-004U","EPOCH":"2026-04-16T19:13:01.051104","MEAN_MOTION":13.11414602,"ECCENTRICITY":0.0001418,"INCLINATION":87.8929,"RA_OF_ASC_NODE":33.269,"ARG_OF_PERICENTER":82.6393,"MEAN_ANOMALY":277.4896,"EPHEMERIS_TYPE":0,"CLASSIFICATION_TYPE":"U","NORAD_CAT_ID":55158,"ELEMENT_SET_NO":999,"REV_AT_EPOCH":15781,"BSTAR":5.2239000000000006e-05,"MEAN_MOTION_DOT":3.1e-07,"MEAN_MOTION_DDOT":0.0},{"OBJECT_NAME":"ONEWEB-0618","OBJECT_ID":"2023-004V","EPOCH":"2026-04-16T16:14:34.531584","MEAN_MOTION":15.12580443,"ECCENTRICITY":0.0014033,"INCLINATION":86.9144,"RA_OF_ASC_NODE":202.5782,"ARG_OF_PERICENTER":152.9942,"MEAN_ANOMALY":207.2031,"EPHEMERIS_TYPE":0,"CLASSIFICATION_TYPE":"U","NORAD_CAT_ID":55159,"ELEMENT_SET_NO":999,"REV_AT_EPOCH":17296,"BSTAR":0.00024660000000000003,"MEAN_MOTION_DOT":4.343e-05,"MEAN_MOTION_DDOT":0.0},{"OBJECT_NAME":"ONEWEB-0619","OBJECT_ID":"2023-004W","EPOCH":"2026-04-16T10:32:08.412000","MEAN_MOTION":13.17648769,"ECCENTRICITY":0.0001883,"INCLINATION":87.9196,"RA_OF_ASC_NODE":18.1091,"ARG_OF_PERICENTER":93.6233,"MEAN_ANOMALY":266.5114,"EPHEMERIS_TYPE":0,"CLASSIFICATION_TYPE":"U","NORAD_CAT_ID":55160,"ELEMENT_SET_NO":999,"REV_AT_EPOCH":15946,"BSTAR":0.00010466,"MEAN_MOTION_DOT":5.4e-07,"MEAN_MOTION_DDOT":0.0},{"OBJECT_NAME":"ONEWEB-0620","OBJECT_ID":"2023-004X","EPOCH":"2026-04-16T19:05:41.770176","MEAN_MOTION":13.11414547,"ECCENTRICITY":0.0001736,"INCLINATION":87.8921,"RA_OF_ASC_NODE":33.2822,"ARG_OF_PERICENTER":69.709,"MEAN_ANOMALY":290.4225,"EPHEMERIS_TYPE":0,"CLASSIFICATION_TYPE":"U","NORAD_CAT_ID":55161,"ELEMENT_SET_NO":999,"REV_AT_EPOCH":15778,"BSTAR":0.00056735,"MEAN_MOTION_DOT":2.14e-06,"MEAN_MOTION_DDOT":0.0},{"OBJECT_NAME":"ONEWEB-0621","OBJECT_ID":"2023-004Y","EPOCH":"2026-04-16T12:25:16.166208","MEAN_MOTION":13.11416106,"ECCENTRICITY":0.0001746,"INCLINATION":87.8937,"RA_OF_ASC_NODE":33.3204,"ARG_OF_PERICENTER":84.5063,"MEAN_ANOMALY":275.6264,"EPHEMERIS_TYPE":0,"CLASSIFICATION_TYPE":"U","NORAD_CAT_ID":55162,"ELEMENT_SET_NO":999,"REV_AT_EPOCH":15772,"BSTAR":-0.0017008000000000001,"MEAN_MOTION_DOT":-5.9e-06,"MEAN_MOTION_DDOT":0.0},{"OBJECT_NAME":"ONEWEB-0622","OBJECT_ID":"2023-004Z","EPOCH":"2026-04-16T12:32:36.173760","MEAN_MOTION":13.11416762,"ECCENTRICITY":0.0001113,"INCLINATION":87.8933,"RA_OF_ASC_NODE":33.3216,"ARG_OF_PERICENTER":75.9681,"MEAN_ANOMALY":284.1571,"EPHEMERIS_TYPE":0,"CLASSIFICATION_TYPE":"U","NORAD_CAT_ID":55163,"ELEMENT_SET_NO":999,"REV_AT_EPOCH":15771,"BSTAR":-0.0013926,"MEAN_MOTION_DOT":-4.81e-06,"MEAN_MOTION_DDOT":0.0},{"OBJECT_NAME":"ONEWEB-0623","OBJECT_ID":"2023-004AA","EPOCH":"2026-04-16T12:14:11.261184","MEAN_MOTION":13.17650482,"ECCENTRICITY":0.0001386,"INCLINATION":87.9183,"RA_OF_ASC_NODE":18.1328,"ARG_OF_PERICENTER":100.6454,"MEAN_ANOMALY":259.4833,"EPHEMERIS_TYPE":0,"CLASSIFICATION_TYPE":"U","NORAD_CAT_ID":55164,"ELEMENT_SET_NO":999,"REV_AT_EPOCH":15946,"BSTAR":-0.00051309,"MEAN_MOTION_DOT":-1.86e-06,"MEAN_MOTION_DDOT":0.0},{"OBJECT_NAME":"ONEWEB-0624","OBJECT_ID":"2023-004AB","EPOCH":"2026-04-16T16:39:37.596096","MEAN_MOTION":13.12925161,"ECCENTRICITY":0.0001547,"INCLINATION":87.9003,"RA_OF_ASC_NODE":2.8127,"ARG_OF_PERICENTER":82.5283,"MEAN_ANOMALY":277.6021,"EPHEMERIS_TYPE":0,"CLASSIFICATION_TYPE":"U","NORAD_CAT_ID":55165,"ELEMENT_SET_NO":999,"REV_AT_EPOCH":16000,"BSTAR":0.0004904,"MEAN_MOTION_DOT":1.9e-06,"MEAN_MOTION_DDOT":0.0},{"OBJECT_NAME":"ONEWEB-0625","OBJECT_ID":"2023-004AC","EPOCH":"2026-04-16T11:59:37.083264","MEAN_MOTION":13.17648174,"ECCENTRICITY":0.000196,"INCLINATION":87.9184,"RA_OF_ASC_NODE":18.1289,"ARG_OF_PERICENTER":81.2184,"MEAN_ANOMALY":278.917,"EPHEMERIS_TYPE":0,"CLASSIFICATION_TYPE":"U","NORAD_CAT_ID":55166,"ELEMENT_SET_NO":999,"REV_AT_EPOCH":15945,"BSTAR":0.0001235,"MEAN_MOTION_DOT":6.1e-07,"MEAN_MOTION_DDOT":0.0},{"OBJECT_NAME":"ONEWEB-0626","OBJECT_ID":"2023-004AD","EPOCH":"2026-04-16T11:45:02.437920","MEAN_MOTION":13.17650253,"ECCENTRICITY":0.0001875,"INCLINATION":87.9187,"RA_OF_ASC_NODE":18.1308,"ARG_OF_PERICENTER":64.4591,"MEAN_ANOMALY":295.6734,"EPHEMERIS_TYPE":0,"CLASSIFICATION_TYPE":"U","NORAD_CAT_ID":55167,"ELEMENT_SET_NO":999,"REV_AT_EPOCH":15945,"BSTAR":0.00011518,"MEAN_MOTION_DOT":5.8e-07,"MEAN_MOTION_DDOT":0.0},{"OBJECT_NAME":"ONEWEB-0627","OBJECT_ID":"2023-004AE","EPOCH":"2026-04-16T05:59:58.019712","MEAN_MOTION":13.17649557,"ECCENTRICITY":0.0001442,"INCLINATION":87.9182,"RA_OF_ASC_NODE":18.1785,"ARG_OF_PERICENTER":93.2291,"MEAN_ANOMALY":266.9005,"EPHEMERIS_TYPE":0,"CLASSIFICATION_TYPE":"U","NORAD_CAT_ID":55168,"ELEMENT_SET_NO":999,"REV_AT_EPOCH":15942,"BSTAR":-7.5073e-05,"MEAN_MOTION_DOT":-1.6e-07,"MEAN_MOTION_DDOT":0.0},{"OBJECT_NAME":"ONEWEB-0628","OBJECT_ID":"2023-004AF","EPOCH":"2026-04-16T10:10:51.174624","MEAN_MOTION":13.12441596,"ECCENTRICITY":0.0001478,"INCLINATION":87.901,"RA_OF_ASC_NODE":2.9218,"ARG_OF_PERICENTER":102.4293,"MEAN_ANOMALY":257.7001,"EPHEMERIS_TYPE":0,"CLASSIFICATION_TYPE":"U","NORAD_CAT_ID":55169,"ELEMENT_SET_NO":999,"REV_AT_EPOCH":15993,"BSTAR":-0.0009830799999999999,"MEAN_MOTION_DOT":-3.41e-06,"MEAN_MOTION_DDOT":0.0}]